H1 CPF  1  DGF 2022 02 03 12  5341 larets     NONE      
H2   304206 5557    27944 2022 02 02 00 00 00 2022 02 09 00 00 00    30 1 1  0 0 0
H5  0.0650
H9
10 0 59615  39600.000000  0      -4557059.969      -5041194.026      -1903261.988
10 0 59615  39630.000000  0      -4630767.582      -5050644.077      -1687421.949
10 0 59615  39660.000000  0      -4699795.744      -5054646.010      -1469853.362
10 0 59615  39690.000000  0      -4764049.673      -5053215.581      -1250778.852
10 0 59615  39720.000000  0      -4823439.559      -5046374.538      -1030422.676
10 0 59615  39750.000000  0      -4877880.699      -5034150.582       -809010.488
10 0 59615  39780.000000  0      -4927293.605      -5016577.324       -586769.102
10 0 59615  39810.000000  0      -4971604.122      -4993694.230       -363926.246
10 0 59615  39840.000000  0      -5010743.535      -4965546.555       -140710.324
10 0 59615  39870.000000  0      -5044648.666      -4932185.283         82649.831
10 0 59615  39900.000000  0      -5073261.968      -4893667.045        305925.202
10 0 59615  39930.000000  0      -5096531.613      -4850054.039        528886.831
10 0 59615  39960.000000  0      -5114411.569      -4801413.940        751306.067
10 0 59615  39990.000000  0      -5126861.670      -4747819.806        972954.812
10 0 59615  40020.000000  0      -5133847.685      -4689349.971       1193605.762
10 0 59615  40050.000000  0      -5135341.370      -4626087.936       1413032.648
10 0 59615  40080.000000  0      -5131320.521      -4558122.261       1631010.482
10 0 59615  40110.000000  0      -5121769.018      -4485546.435       1847315.791
10 0 59615  40140.000000  0      -5106676.860      -4408458.757       2061726.857
10 0 59615  40170.000000  0      -5086040.192      -4326962.201       2274023.956
10 0 59615  40200.000000  0      -5059861.328      -4241164.279       2483989.582
10 0 59615  40230.000000  0      -5028148.760      -4151176.897       2691408.686
10 0 59615  40260.000000  0      -4990917.166      -4057116.211       2896068.893
10 0 59615  40290.000000  0      -4948187.413      -3959102.472       3097760.731
10 0 59615  40320.000000  0      -4899986.540      -3857259.878       3296277.846
10 0 59615  40350.000000  0      -4846347.752      -3751716.407       3491417.227
10 0 59615  40380.000000  0      -4787310.387      -3642603.655       3682979.409
10 0 59615  40410.000000  0      -4722919.888      -3530056.668       3870768.688
10 0 59615  40440.000000  0      -4653227.763      -3414213.769       4054593.320
10 0 59615  40470.000000  0      -4578291.535      -3295216.384       4234265.714
10 0 59615  40500.000000  0      -4498174.693      -3173208.860       4409602.628
10 0 59615  40530.000000  0      -4412946.630      -3048338.296       4580425.349
10 0 59615  40560.000000  0      -4322682.574      -2920754.351       4746559.873
10 0 59615  40590.000000  0      -4227463.524      -2790609.070       4907837.081
10 0 59615  40620.000000  0      -4127376.162      -2658056.696       5064092.909
10 0 59615  40650.000000  0      -4022512.773      -2523253.482       5215168.509
10 0 59615  40680.000000  0      -3912971.155      -2386357.510       5360910.408
10 0 59615  40710.000000  0      -3798854.514      -2247528.497       5501170.657
10 0 59615  40740.000000  0      -3680271.373      -2106927.614       5635806.983
10 0 59615  40770.000000  0      -3557335.450      -1964717.291       5764682.925
10 0 59615  40800.000000  0      -3430165.552      -1821061.024       5887667.973
10 0 59615  40830.000000  0      -3298885.444      -1676123.192       6004637.693
10 0 59615  40860.000000  0      -3163623.727      -1530068.857       6115473.847
10 0 59615  40890.000000  0      -3024513.705      -1383063.579       6220064.502
10 0 59615  40920.000000  0      -2881693.244      -1235273.223       6318304.144
10 0 59615  40950.000000  0      -2735304.633      -1086863.771       6410093.773
10 0 59615  40980.000000  0      -2585494.433       -938001.132       6495340.995
10 0 59615  41010.000000  0      -2432413.323       -788850.954       6573960.107
10 0 59615  41040.000000  0      -2276215.943       -639578.441       6645872.173
10 0 59615  41070.000000  0      -2117060.736       -490348.176       6711005.090
10 0 59615  41100.000000  0      -1955109.783       -341323.936       6769293.657
10 0 59615  41130.000000  0      -1790528.637       -192668.520       6820679.629
10 0 59615  41160.000000  0      -1623486.153        -44543.572       6865111.773
10 0 59615  41190.000000  0      -1454154.315        102890.597       6902545.911
10 0 59615  41220.000000  0      -1282708.056        249475.177       6932944.965
10 0 59615  41250.000000  0      -1109325.079        395053.033       6956278.981
10 0 59615  41280.000000  0       -934185.669        539468.868       6972525.161
10 0 59615  41310.000000  0       -757472.505        682569.393       6981667.878
10 0 59615  41340.000000  0       -579370.475        824203.482       6983698.687
10 0 59615  41370.000000  0       -400066.476        964222.335       6978616.329
10 0 59615  41400.000000  0       -219749.225       1102479.631       6966426.733
10 0 59615  41430.000000  0        -38609.057       1238831.679       6947143.006
10 0 59615  41460.000000  0        143162.273       1373137.568       6920785.417
10 0 59615  41490.000000  0        325371.796       1505259.314       6887381.378
10 0 59615  41520.000000  0        507825.531       1635061.998       6846965.406
10 0 59615  41550.000000  0        690328.691       1762413.901       6799579.092
10 0 59615  41580.000000  0        872685.886       1887186.638       6745271.056
10 0 59615  41610.000000  0       1054701.334       2009255.283       6684096.902
10 0 59615  41640.000000  0       1236179.067       2128498.496       6616119.159
10 0 59615  41670.000000  0       1416923.144       2244798.640       6541407.222
10 0 59615  41700.000000  0       1596737.854       2358041.898       6460037.285
10 0 59615  41730.000000  0       1775427.934       2468118.383       6372092.266
10 0 59615  41760.000000  0       1952798.773       2574922.246       6277661.731
10 0 59615  41790.000000  0       2128656.631       2678351.781       6176841.803
10 0 59615  41820.000000  0       2302808.847       2778309.516       6069735.073
10 0 59615  41850.000000  0       2475064.050       2874702.315       5956450.497
10 0 59615  41880.000000  0       2645232.375       2967441.457       5837103.292
10 0 59615  41910.000000  0       2813125.671       3056442.727       5711814.825
10 0 59615  41940.000000  0       2978557.711       3141626.487       5580712.485
10 0 59615  41970.000000  0       3141344.401       3222917.751       5443929.564
10 0 59615  42000.000000  0       3301303.984       3300246.255       5301605.121
10 0 59615  42030.000000  0       3458257.242       3373546.509       5153883.838
10 0 59615  42060.000000  0       3612027.694       3442757.861       5000915.885
10 0 59615  42090.000000  0       3762441.793       3507824.536       4842856.770
10 0 59615  42120.000000  0       3909329.127       3568695.691       4679867.192
10 0 59615  42150.000000  0       4052522.612       3625325.447       4512112.888
10 0 59615  42180.000000  0       4191858.694       3677672.932       4339764.475
10 0 59615  42210.000000  0       4327177.545       3725702.313       4162997.271
10 0 59615  42240.000000  0       4458323.255       3769382.815       3981991.120
10 0 59615  42270.000000  0       4585144.016       3808688.744       3796930.195
10 0 59615  42300.000000  0       4707492.288       3843599.485       3608002.811
10 0 59615  42330.000000  0       4825224.979       3874099.510       3415401.239
10 0 59615  42360.000000  0       4938203.607       3900178.373       3219321.514
10 0 59615  42390.000000  0       5046294.474       3921830.706       3019963.234
10 0 59615  42420.000000  0       5149368.821       3939056.203       2817529.361
10 0 59615  42450.000000  0       5247302.994       3951859.600       2612226.014
10 0 59615  42480.000000  0       5339978.586       3960250.654       2404262.252
10 0 59615  42510.000000  0       5427282.587       3964244.108       2193849.862
10 0 59615  42540.000000  0       5509107.522       3963859.654       1981203.140
10 0 59615  42570.000000  0       5585351.585       3959121.893       1766538.671
10 0 59615  42600.000000  0       5655918.766       3950060.286       1550075.105
10 0 59615  42630.000000  0       5720718.970       3936709.097       1332032.927
10 0 59615  42660.000000  0       5779668.137       3919107.331       1112634.232
10 0 59615  42690.000000  0       5832688.344       3897298.674        892102.493
10 0 59615  42720.000000  0       5879707.908       3871331.416        670662.324
10 0 59615  42750.000000  0       5920661.480       3841258.375        448539.253
10 0 59615  42780.000000  0       5955490.121       3807136.813        225959.482
10 0 59615  42810.000000  0       5984141.394       3769028.352          3149.659
10 0 59615  42840.000000  0       6006569.425       3726998.880       -219663.360
10 0 59615  42870.000000  0       6022734.973       3681118.455       -442252.745
10 0 59615  42900.000000  0       6032605.486       3631461.201       -664391.934
10 0 59615  42930.000000  0       6036155.149       3578105.205       -885854.860
10 0 59615  42960.000000  0       6033364.922       3521132.399      -1106416.189
10 0 59615  42990.000000  0       6024222.571       3460628.446      -1325851.553
10 0 59615  43020.000000  0       6008722.701       3396682.627      -1543937.777
10 0 59615  43050.000000  0       5986866.763       3329387.714      -1760453.111
10 0 59615  43080.000000  0       5958663.069       3258839.842      -1975177.460
10 0 59615  43110.000000  0       5924126.791       3185138.387      -2187892.609
10 0 59615  43140.000000  0       5883279.960       3108385.824      -2398382.445
10 0 59615  43170.000000  0       5836151.444       3028687.595      -2606433.179
99
